CASSIOPE-1
1 39265U 13055A   25058.07231755  .00048107  00000-0  82344-3 0  9993
2 39265  80.9416 267.7964 0419953 183.6504 176.1630 14.90333638596064
D-STAR ONE PHOENIX
1 43188U 18014J   25057.79279000  .00012070  00000-0  74440-3 0  9993
2 43188  97.5746 321.9176 0008987 203.8477 156.2337 15.10049940386856
S-NET D
1 43186U 18014G   25057.65954781  .00012268  00000-0  75682-3 0  9990
2 43186  97.5729 321.6824 0008222 208.1280 151.9506 15.10043020386835
TEN-KOH
1 43677U 18084G   25057.54522415  .00008630  00000-0  70596-3 0  9992
2 43677  98.0880 225.7018 0009860 248.2404 111.7769 14.99562120344792
STARS-AO
1 43679U 18084J   25058.05749979  .00016527  00000-0  10490-2 0  9997
2 43679  98.0711 239.5038 0002688 347.7478  12.3683 15.08965434345618
KAIDUN-1
1 41915U 17002C   25058.10390046  .00061842  00000-0  11432-2 0  9997
2 41915  97.1731  86.7559 0005341  56.9127 303.2637 15.48838203450053
CAS-4B (ZHUHAI-1 02)
1 42759U 17034B   25057.84423635  .00073350  00000-0  13137-2 0  9991
2 42759  43.0099 207.7564 0018249 291.7618  68.1299 15.48866315426591
CAS-4A (ZHUHAI-1 01)
1 42761U 17034D   25058.12803700  .00075703  00000-0  13268-2 0  9990
2 42761  43.0135 204.0007 0019484 299.6140  60.2779 15.49441816426655
EAGLESAT-1
1 43018U 17073F   25057.82709950  .00070188  00000-0  18876-2 0  9999
2 43018  97.5585 308.5319 0117983 101.7695 259.6809 15.30801326394705
LUOJIA-1 01
1 43485U 18048B   25058.17518988  .00006776  00000-0  81290-3 0  9991
2 43485  97.8503 138.7715 0008690 235.3807 124.6588 14.84329357363654
DIWATA-2B (PO-101)
1 43678U 18084H   25058.12023348  .00006082  00000-0  52762-3 0  9993
2 43678  98.0936 230.4270 0007927 268.8273  91.2039 14.97429408345042
ESHAIL-2
1 43700U 18090A   25058.02255189  .00000143  00000-0  00000+0 0  9991
2 43700   0.0053 145.8989 0001247 220.4950 184.6012  1.00271695 23158
K2SAT
1 43761U 18099D   25057.87101380  .00006854  00000-0  50826-3 0  9992
2 43761  97.4872 110.1683 0013095 159.7741 200.4006 15.03327587340619
AISTECHSAT-2
1 43768U 18099L   25057.12334287  .00011358  00000-0  73106-3 0  9992
2 43768  97.4994 110.7918 0006634 133.1548 227.0236 15.08513127340331
SNUSAT-2
1 43782U 18099AA  25057.86658129  .00017689  00000-0  10289-2 0  9998
2 43782  97.4763 114.7627 0013670 144.9634 215.2499 15.12038944340969
ITASAT-1
1 43786U 18099AE  25058.10063347  .00015446  00000-0  93160-3 0  9991
2 43786  97.4727 114.7775 0014893 195.6900 164.3871 15.10741625340978
IRVINE02
1 43789U 18099AH  25058.11937735  .00048717  00000-0  17266-2 0  9995
2 43789  97.4813 124.9067 0011433 146.1475 214.0496 15.28876516341300
EAGLET-1
1 43790U 18099AJ  25057.59673904  .00009753  00000-0  64426-3 0  9991
2 43790  97.4924 114.5352 0012709 176.1770 183.9557 15.07548021340546
ESEO
1 43792U 18099AL  25057.89654311  .00005471  00000-0  42229-3 0  9997
2 43792  97.4581 109.4076 0011307 146.1908 214.0040 15.01904841340404
CSIM-FD
1 43793U 18099AM  25057.64012682  .00119272  00000-0  25536-2 0  9996
2 43793  97.4994 130.1899 0006621 143.7396 216.4302 15.44313952341619
HIBER-2
1 43774U 18099S   25058.16561248  .00050625  00000-0  17897-2 0  9997
2 43774  97.5043 125.7280 0007179 140.9827 219.1932 15.28986520341488
MINXSS-2
1 43758U 18099A   25058.13684604  .00032460  00000-0  14657-2 0  9996
2 43758  97.5163 124.1079 0013681 154.0855 206.1068 15.20825025341372
FOX-1CLIFF (AO-95)
1 43770U 18099N   25057.74238391  .00019557  00000-0  10720-2 0  9993
2 43770  97.5076 117.0894 0011151 202.9221 157.1514 15.14175930340977
MOVE-II
1 43780U 18099Y   25057.59011028  .00113846  00000-0  24609-2 0  9990
2 43780  97.4813 128.1285 0004228 168.4354 191.6992 15.44063588341762
CORVUS-BC4
1 43767U 18099K   25057.87743096  .00011085  00000-0  74648-3 0  9994
2 43767  97.4757 109.5820 0009255 187.3817 172.7276 15.06828249340687
CZ-4B R/B
1 43656U 18081B   25057.54975007  .00000491  00000-0  16388-3 0  9991
2 43656  99.4132 291.8717 0205235 195.7702 163.7024 14.31563044331244
COSMOS 2504 [i]
1 40555U 15020D   25058.11549056  .00001538  00000-0  56257-3 0  9993
2 40555  82.5136 238.3332 0610678 125.2052 240.7863 13.60924684485566
MERIDIAN-4
1 37398U 11018A   25056.76674056 -.00000365  00000-0  00000-0 0  9995
2 37398  62.1617 149.5479 7300652 259.8985  18.2751  2.00677894101204
MERIDIAN-6
1 38995U 12063A   25057.08768248  .00000602  00000-0  00000-0 0  9996
2 38995  64.8512  59.9606 7211521 232.9060  37.7177  2.00561021 89958
MERIDIAN-7
1 40296U 14069A   25057.62164535  .00000165  00000-0  00000-0 0  9994
2 40296  63.5014 265.2291 6884061 272.8517  16.8361  2.00593232 75692
METOP-C
1 43689U 18087A   25058.08856114  .00000404  00000-0  20445-3 0  9993
2 43689  98.6879 119.9226 0002456  91.2791 268.8668 14.21511867327333
FENGYUN-3B
1 37214U 10059A   25058.12292878  .00000287  00000-0  17224-3 0  9997
2 37214  99.0280  95.4505 0023155  92.3038 335.1240 14.14685097740291
FENGYUN-3C
1 39260U 13052A   25058.16032486  .00000395  00000-0  22249-3 0  9990
2 39260  98.4480  50.4119 0013848 314.9566  45.0485 14.15569086591425
EWS-G1 (GOES-13)
1 29155U 06018A   25057.77421834  .00000061  00000-0  00000-0 0  9999
2 29155   3.2907  82.2374 0065918 261.3546 148.6787  0.98828335 38555
FENGYUN-2H
1 43491U 18050A   25057.15947709 -.00000124  00000-0  00000-0 0  9994
2 43491   1.8001  84.7761 0000839 219.9882 347.7281  1.00266567 24668
FENGYUN-2G
1 40367U 14090A   25057.80950804 -.00000301  00000-0  00000-0 0  9992
2 40367   4.4280  78.5843 0000927 116.6181 352.6159  1.00266134 37236
INMARSAT 4-F1
1 28628U 05009A   25057.79306520  .00000034  00000-0  00000-0 0  9998
2 28628   4.5603  41.9973 0002184 321.6201 256.8385  1.00271385 72901
INMARSAT 4-F2
1 28899U 05044A   25057.78628852 -.00000260  00000-0  00000-0 0  9993
2 28899   4.4840  43.2765 0002166 310.3453 229.7962  1.00270083 70756
INMARSAT 4-F3
1 33278U 08039A   25057.52401814 -.00000138  00000-0  00000-0 0  9990
2 33278   3.9009  29.2609 0002653 314.6219 263.3562  1.00271450 41772
INMARSAT 4A-F4 (ALPHASAT)
1 39215U 13038A   25058.05024926  .00000135  00000-0  00000+0 0  9991
2 39215   2.9241   5.2567 0001567 348.8730 205.9522  1.00269515 42502
ASTROCAST
1 43798U 18099AS  25058.13468459  .00031605  00000-0  13071-2 0  9997
2 43798  97.4980 125.3709 0009342 115.7209 244.4993 15.23867116341542
JY1SAT (JO-97)
1 43803U 18099AX  25058.09896488  .00025115  00000-0  12653-2 0  9990
2 43803  97.4822 118.2615 0009004 138.9801 221.2111 15.17124502341218
SUOMI-100
1 43804U 18099AY  25058.09790848  .00022141  00000-0  11754-2 0  9991
2 43804  97.4890 117.8070 0014181 141.3436 218.8814 15.15253187341164
GEO-KOMPSAT-2A
1 43823U 18100A   25056.77266950 -.00000344  00000-0  00000-0 0  9992
2 43823   0.0195  65.9182 0001561 350.3455 146.0005  1.00269729 22855
UWE-4
1 43880U 18111E   25057.70635177  .00030324  00000-0  13594-2 0  9996
2 43880  97.5971 329.3283 0012244 200.7760 159.2979 15.21105142337960
D-STAR ONE SPARROW
1 43881U 18111F   25057.81656177  .00038271  00000-0  15371-2 0  9996
2 43881  97.6160 332.8495 0005673 225.0141 135.0637 15.24834980338097
METEOR M2-2
1 44387U 19038A   25058.13600766  .00000366  00000-0  17891-3 0  9990
2 44387  98.8637  34.8702 0000852   8.4188 351.7004 14.24149257293673
MOMENTUS-X1
1 44408U 19038Y   25057.59655852  .00030721  00000-0  80039-3 0  9991
2 44408  97.7234  64.5200 0011715 305.0899  54.9246 15.38748525312846
MERIDIAN-8
1 44453U 19046A   25057.18876910  .00000173  00000-0  00000-0 0  9990
2 44453  62.7736 109.1214 6881648 273.6530  16.5982  2.00599985 40796
TAURUS-1
1 44530U 19059C   25058.12651849  .00017724  00000-0  34364-2 0  9999
2 44530  98.5922 192.9100 0009097 347.3663  12.7309 14.63277878288948
GAOFEN 12-01
1 44819U 19082A   25058.07144961  .00001501  00000-0  20427-3 0  9993
2 44819  97.8186  71.8713 0004083 104.5079 255.6586 14.80189181283792
DUCHIFAT-3
1 44854U 19089C   25058.01661257  .00061902  00000-0  17485-2 0  9995
2 44854  36.9465 282.1809 0006413  38.8665 321.2548 15.35290777287110
CAS-6 (TO-108)
1 44881U 19093C   25058.17040868  .00003086  00000-0  36573-3 0  9995
2 44881  97.8013 135.9517 0013438 202.6635 157.3988 14.85197361280870
ELEKTRO-L3
1 44903U 19095A   25057.79073966 -.00000098  00000-0  00000-0 0  9998
2 44903   0.0259  86.8496 0001635 243.4874 187.1711  1.00271861 18940
DOSAAF-85 (RS-44)
1 44909U 19096E   25057.90329087  .00000047  00000-0  14282-3 0  9999
2 44909  82.5204 295.5186 0217460 175.3930 184.9244 12.79738620241557
MERIDIAN-9
1 45254U 20015A   25056.91644315 -.00000034  00000-0  00000-0 0  9997
2 45254  65.1249  11.3355 6955869 285.4062  12.5770  2.00623743 36730
ION-MK01
1 46274U 20061C   25057.57771181  .00039501  00000-0  85772-3 0  9998
2 46274  97.2611 124.9676 0002369 237.6761 122.4259 15.44261206249043
UPMSAT-2
1 46276U 20061E   25057.76937802  .00065944  00000-0  10078-2 0  9991
2 46276  97.2598 129.7434 0000691 190.3439 169.7801 15.54190091249420
YARILO-1
1 46490U 20068E   25058.08931214  .01069386  55639-3  23791-2 0  9995
2 46490  97.8226  52.3715 0009331 130.1207 230.0888 15.97920324244306
YARILO-2
1 46491U 20068F   25039.82307463  .09519039  28755-5  10124-2 0  9990
2 46491  97.7749  32.6421 0006725 182.3651 177.7615 16.37592311241495
DEKART
1 46493U 20068H   25057.89377206  .00021892  00000-0  90743-3 0  9991
2 46493  97.8486  33.7799 0013678 146.7581 213.4517 15.23828126243061
NORBY
1 46494U 20068J   25057.86839502  .00028797  00000-0  10667-2 0  9998
2 46494  97.8473  35.6815 0012950 140.1694 220.0497 15.27532260243182
SALSAT (TUBSAT 22)
1 46495U 20068K   25057.50639169  .00016103  00000-0  74399-3 0  9998
2 46495  97.8500  31.0136 0013168 150.0509 210.1481 15.20199990242855
NETSAT-4
1 46504U 20068U   25058.15407612  .00029451  00000-0  11469-2 0  9995
2 46504  97.8363  30.5720 0007816 179.5475 180.5771 15.25916904242902
NETSAT-3
1 46505U 20068V   25057.86210773  .00026069  00000-0  10492-2 0  9990
2 46505  97.8355  29.4277 0006781 191.9908 168.1168 15.24848077242835
